[{"OBJECT_NAME":"SMDC ONE 2.4","OBJECT_ID":"2013-072H","EPOCH":"2026-03-09T13:26:07.283328","MEAN_MOTION":15.15767863,"ECCENTRICITY":0.0137633,"INCLINATION":120.4883,"RA_OF_ASC_NODE":328.0945,"ARG_OF_PERICENTER":267.6479,"MEAN_ANOMALY":90.8828,"EPHEMERIS_TYPE":0,"CLASSIFICATION_TYPE":"U","NORAD_CAT_ID":39469,"ELEMENT_SET_NO":999,"REV_AT_EPOCH":10271,"BSTAR":0.00065974,"MEAN_MOTION_DOT":0.00015821,"MEAN_MOTION_DDOT":0},{"OBJECT_NAME":"STARLINK-36261","OBJECT_ID":"2025-299D","EPOCH":"2026-03-09T22:00:01.999584","MEAN_MOTION":15.32372839,"ECCENTRICITY":0.00013283,"INCLINATION":43.0007,"RA_OF_ASC_NODE":167.8162,"ARG_OF_PERICENTER":279.5019,"MEAN_ANOMALY":305.2641,"EPHEMERIS_TYPE":0,"CLASSIFICATION_TYPE":"U","NORAD_CAT_ID":67105,"ELEMENT_SET_NO":999,"REV_AT_EPOCH":590,"BSTAR":-0.069612872,"MEAN_MOTION_DOT":-0.02009732,"MEAN_MOTION_DDOT":0}]
